[{"OBJECT_NAME":"KAZSTSAT","OBJECT_ID":"2018-099AB","EPOCH":"2026-03-09T14:51:18.118944","MEAN_MOTION":14.99620503,"ECCENTRICITY":0.0006528,"INCLINATION":97.4396,"RA_OF_ASC_NODE":105.0128,"ARG_OF_PERICENTER":11.1145,"MEAN_ANOMALY":349.0222,"EPHEMERIS_TYPE":0,"CLASSIFICATION_TYPE":"U","NORAD_CAT_ID":43783,"ELEMENT_SET_NO":999,"REV_AT_EPOCH":39638,"BSTAR":0.00011446,"MEAN_MOTION_DOT":1.354e-5,"MEAN_MOTION_DDOT":0},{"OBJECT_NAME":"STARLINK-6058","OBJECT_ID":"2023-078AG","EPOCH":"2026-03-09T22:36:25.053696","MEAN_MOTION":14.98328333,"ECCENTRICITY":0.00022815,"INCLINATION":70.0008,"RA_OF_ASC_NODE":343.9928,"ARG_OF_PERICENTER":262.4965,"MEAN_ANOMALY":97.5935,"EPHEMERIS_TYPE":0,"CLASSIFICATION_TYPE":"U","NORAD_CAT_ID":56797,"ELEMENT_SET_NO":999,"REV_AT_EPOCH":15271,"BSTAR":-3.4565952e-5,"MEAN_MOTION_DOT":-5.05e-6,"MEAN_MOTION_DDOT":0}]
